STARLINK-36734          
1 67988U 26039C   26073.91668981 -.01937338  00000+0 -22679-1 0  9996
2 67988  42.9994  23.2353 0001097 250.1694 307.8387 15.63914735  3710
STARLINK-36957          
1 67989U 26039D   26073.73020491  .00463680  00000+0  20819-2 0  9991
2 67989  42.9989  24.0143 0005335 227.1708 132.8716 15.82079172  2438
STARLINK-36951          
1 67990U 26039E   26073.91974643 -.00089738  00000+0 -45475-3 0  9996
2 67990  42.9988  22.8552 0001701 249.2788 110.7901 15.80717548  2463
STARLINK-36941          
1 67991U 26039F   26073.91668981 -.01931742  00000+0 -22923-1 0  9995
2 67991  42.9992  23.2155 0001160 248.9963 316.3695 15.63563141  3715
STARLINK-36950          
1 67992U 26039G   26073.91668981 -.01948686  00000+0 -18499-1 0  9994
2 67992  42.9991  23.0199 0001479 254.3761  29.5239 15.69056365  3719
STARLINK-36975          
1 67993U 26039H   26073.91668981 -.01947049  00000+0 -17504-1 0  9993
2 67993  42.9995  22.9747 0001477 253.5027  48.3877 15.70348023  3719
STARLINK-36993          
1 67994U 26039J   26073.91593996 -.00088525  00000+0 -44471-3 0  9996
2 67994  42.9991  22.8231 0001972 294.3194  65.7472 15.80899598  2465
STARLINK-36968          
1 67995U 26039K   26073.91668981 -.01938507  00000+0 -20129-1 0  9991
2 67995  42.9993  23.0426 0001448 250.7921  23.8115 15.66873582  3716
STARLINK-36979          
1 67996U 26039L   26073.91507143  .00314961  00000+0  14454-2 0  9998
2 67996  42.9992  22.8158 0001536 248.7581 111.3126 15.82002895  2467
STARLINK-36994          
1 67997U 26039M   26073.91668981 -.01924000  00000+0 -13547-1 0  9992
2 67997  42.9996  22.8075 0001466 256.5404 112.0670 15.76456930  3710
STARLINK-36988          
1 67998U 26039N   26073.91668981 -.01928603  00000+0 -12963-1 0  9997
2 67998  42.9999  22.8069 0001628 263.8745 104.9746 15.77493425  3711
STARLINK-36926          
1 67999U 26039P   26073.91668981 -.01925356  00000+0 -13445-1 0  9996
2 67999  42.9997  22.7945 0001462 268.3403 105.4277 15.76642613  3718
STARLINK-36931          
1 68000U 26039Q   26073.91145800 -.00260537  00000+0 -13385-2 0  9996
2 68000  42.9990  22.7865 0003616 335.3163  24.7534 15.80915944  2462
STARLINK-36903          
1 68001U 26039R   26073.91668981 -.01922992  00000+0 -13496-1 0  9990
2 68001  42.9997  22.7742 0001538 257.1384 124.6325 15.76526830  3715
STARLINK-36898          
1 68002U 26039S   26073.34089556  .00348510  00000+0  15838-2 0  9991
2 68002  42.9988  26.2478 0001249 229.9232 130.1531 15.82125495  2370
STARLINK-36862          
1 68003U 26039T   26073.91668981 -.01926961  00000+0 -12974-1 0  9992
2 68003  42.9996  22.7210 0001549 260.0744 142.7965 15.77452936  3718
