[{"OBJECT_NAME":"STARLINK-36734","OBJECT_ID":"2026-039C","EPOCH":"2026-03-14T22:00:01.999584","MEAN_MOTION":15.63914735,"ECCENTRICITY":0.00010974,"INCLINATION":42.9994,"RA_OF_ASC_NODE":23.2353,"ARG_OF_PERICENTER":250.1694,"MEAN_ANOMALY":307.8387,"EPHEMERIS_TYPE":0,"CLASSIFICATION_TYPE":"U","NORAD_CAT_ID":67988,"ELEMENT_SET_NO":999,"REV_AT_EPOCH":371,"BSTAR":-0.022678764,"MEAN_MOTION_DOT":-0.01937338,"MEAN_MOTION_DDOT":0},{"OBJECT_NAME":"STARLINK-36957","OBJECT_ID":"2026-039D","EPOCH":"2026-03-14T17:31:29.704224","MEAN_MOTION":15.82079172,"ECCENTRICITY":0.00053353,"INCLINATION":42.9989,"RA_OF_ASC_NODE":24.0143,"ARG_OF_PERICENTER":227.1708,"MEAN_ANOMALY":132.8716,"EPHEMERIS_TYPE":0,"CLASSIFICATION_TYPE":"U","NORAD_CAT_ID":67989,"ELEMENT_SET_NO":999,"REV_AT_EPOCH":243,"BSTAR":0.002081936,"MEAN_MOTION_DOT":0.0046368,"MEAN_MOTION_DDOT":0},{"OBJECT_NAME":"STARLINK-36951","OBJECT_ID":"2026-039E","EPOCH":"2026-03-14T22:04:26.091552","MEAN_MOTION":15.80717548,"ECCENTRICITY":0.00017015,"INCLINATION":42.9988,"RA_OF_ASC_NODE":22.8552,"ARG_OF_PERICENTER":249.2788,"MEAN_ANOMALY":110.7901,"EPHEMERIS_TYPE":0,"CLASSIFICATION_TYPE":"U","NORAD_CAT_ID":67990,"ELEMENT_SET_NO":999,"REV_AT_EPOCH":246,"BSTAR":-0.00045475404,"MEAN_MOTION_DOT":-0.00089738,"MEAN_MOTION_DDOT":0},{"OBJECT_NAME":"STARLINK-36941","OBJECT_ID":"2026-039F","EPOCH":"2026-03-14T22:00:01.999584","MEAN_MOTION":15.63563141,"ECCENTRICITY":0.00011602,"INCLINATION":42.9992,"RA_OF_ASC_NODE":23.2155,"ARG_OF_PERICENTER":248.9963,"MEAN_ANOMALY":316.3695,"EPHEMERIS_TYPE":0,"CLASSIFICATION_TYPE":"U","NORAD_CAT_ID":67991,"ELEMENT_SET_NO":999,"REV_AT_EPOCH":371,"BSTAR":-0.022923467,"MEAN_MOTION_DOT":-0.01931742,"MEAN_MOTION_DDOT":0},{"OBJECT_NAME":"STARLINK-36950","OBJECT_ID":"2026-039G","EPOCH":"2026-03-14T22:00:01.999584","MEAN_MOTION":15.69056365,"ECCENTRICITY":0.00014795,"INCLINATION":42.9991,"RA_OF_ASC_NODE":23.0199,"ARG_OF_PERICENTER":254.3761,"MEAN_ANOMALY":29.5239,"EPHEMERIS_TYPE":0,"CLASSIFICATION_TYPE":"U","NORAD_CAT_ID":67992,"ELEMENT_SET_NO":999,"REV_AT_EPOCH":371,"BSTAR":-0.018498693,"MEAN_MOTION_DOT":-0.01948686,"MEAN_MOTION_DDOT":0},{"OBJECT_NAME":"STARLINK-36975","OBJECT_ID":"2026-039H","EPOCH":"2026-03-14T22:00:01.999584","MEAN_MOTION":15.70348023,"ECCENTRICITY":0.00014772,"INCLINATION":42.9995,"RA_OF_ASC_NODE":22.9747,"ARG_OF_PERICENTER":253.5027,"MEAN_ANOMALY":48.3877,"EPHEMERIS_TYPE":0,"CLASSIFICATION_TYPE":"U","NORAD_CAT_ID":67993,"ELEMENT_SET_NO":999,"REV_AT_EPOCH":371,"BSTAR":-0.017504266,"MEAN_MOTION_DOT":-0.01947049,"MEAN_MOTION_DDOT":0},{"OBJECT_NAME":"STARLINK-36993","OBJECT_ID":"2026-039J","EPOCH":"2026-03-14T21:58:57.212544","MEAN_MOTION":15.80899598,"ECCENTRICITY":0.00019722,"INCLINATION":42.9991,"RA_OF_ASC_NODE":22.8231,"ARG_OF_PERICENTER":294.3194,"MEAN_ANOMALY":65.7472,"EPHEMERIS_TYPE":0,"CLASSIFICATION_TYPE":"U","NORAD_CAT_ID":67994,"ELEMENT_SET_NO":999,"REV_AT_EPOCH":246,"BSTAR":-0.00044471322,"MEAN_MOTION_DOT":-0.00088525,"MEAN_MOTION_DDOT":0},{"OBJECT_NAME":"STARLINK-36968","OBJECT_ID":"2026-039K","EPOCH":"2026-03-14T22:00:01.999584","MEAN_MOTION":15.66873582,"ECCENTRICITY":0.00014486,"INCLINATION":42.9993,"RA_OF_ASC_NODE":23.0426,"ARG_OF_PERICENTER":250.7921,"MEAN_ANOMALY":23.8115,"EPHEMERIS_TYPE":0,"CLASSIFICATION_TYPE":"U","NORAD_CAT_ID":67995,"ELEMENT_SET_NO":999,"REV_AT_EPOCH":371,"BSTAR":-0.020128921,"MEAN_MOTION_DOT":-0.01938507,"MEAN_MOTION_DDOT":0},{"OBJECT_NAME":"STARLINK-36979","OBJECT_ID":"2026-039L","EPOCH":"2026-03-14T21:57:42.171552","MEAN_MOTION":15.82002895,"ECCENTRICITY":0.00015369,"INCLINATION":42.9992,"RA_OF_ASC_NODE":22.8158,"ARG_OF_PERICENTER":248.7581,"MEAN_ANOMALY":111.3126,"EPHEMERIS_TYPE":0,"CLASSIFICATION_TYPE":"U","NORAD_CAT_ID":67996,"ELEMENT_SET_NO":999,"REV_AT_EPOCH":246,"BSTAR":0.0014454093,"MEAN_MOTION_DOT":0.00314961,"MEAN_MOTION_DDOT":0},{"OBJECT_NAME":"STARLINK-36994","OBJECT_ID":"2026-039M","EPOCH":"2026-03-14T22:00:01.999584","MEAN_MOTION":15.7645693,"ECCENTRICITY":0.00014663,"INCLINATION":42.9996,"RA_OF_ASC_NODE":22.8075,"ARG_OF_PERICENTER":256.5404,"MEAN_ANOMALY":112.067,"EPHEMERIS_TYPE":0,"CLASSIFICATION_TYPE":"U","NORAD_CAT_ID":67997,"ELEMENT_SET_NO":999,"REV_AT_EPOCH":371,"BSTAR":-0.013546738,"MEAN_MOTION_DOT":-0.01924,"MEAN_MOTION_DDOT":0},{"OBJECT_NAME":"STARLINK-36988","OBJECT_ID":"2026-039N","EPOCH":"2026-03-14T22:00:01.999584","MEAN_MOTION":15.77493425,"ECCENTRICITY":0.0001628,"INCLINATION":42.9999,"RA_OF_ASC_NODE":22.8069,"ARG_OF_PERICENTER":263.8745,"MEAN_ANOMALY":104.9746,"EPHEMERIS_TYPE":0,"CLASSIFICATION_TYPE":"U","NORAD_CAT_ID":67998,"ELEMENT_SET_NO":999,"REV_AT_EPOCH":371,"BSTAR":-0.012962786,"MEAN_MOTION_DOT":-0.01928603,"MEAN_MOTION_DDOT":0},{"OBJECT_NAME":"STARLINK-36926","OBJECT_ID":"2026-039P","EPOCH":"2026-03-14T22:00:01.999584","MEAN_MOTION":15.76642613,"ECCENTRICITY":0.00014626,"INCLINATION":42.9997,"RA_OF_ASC_NODE":22.7945,"ARG_OF_PERICENTER":268.3403,"MEAN_ANOMALY":105.4277,"EPHEMERIS_TYPE":0,"CLASSIFICATION_TYPE":"U","NORAD_CAT_ID":67999,"ELEMENT_SET_NO":999,"REV_AT_EPOCH":371,"BSTAR":-0.013445255,"MEAN_MOTION_DOT":-0.01925356,"MEAN_MOTION_DDOT":0},{"OBJECT_NAME":"STARLINK-36931","OBJECT_ID":"2026-039Q","EPOCH":"2026-03-14T21:52:29.971200","MEAN_MOTION":15.80915944,"ECCENTRICITY":0.00036169,"INCLINATION":42.999,"RA_OF_ASC_NODE":22.7865,"ARG_OF_PERICENTER":335.3163,"MEAN_ANOMALY":24.7534,"EPHEMERIS_TYPE":0,"CLASSIFICATION_TYPE":"U","NORAD_CAT_ID":68000,"ELEMENT_SET_NO":999,"REV_AT_EPOCH":246,"BSTAR":-0.0013384962,"MEAN_MOTION_DOT":-0.00260537,"MEAN_MOTION_DDOT":0},{"OBJECT_NAME":"STARLINK-36903","OBJECT_ID":"2026-039R","EPOCH":"2026-03-14T22:00:01.999584","MEAN_MOTION":15.7652683,"ECCENTRICITY":0.00015382,"INCLINATION":42.9997,"RA_OF_ASC_NODE":22.7742,"ARG_OF_PERICENTER":257.1384,"MEAN_ANOMALY":124.6325,"EPHEMERIS_TYPE":0,"CLASSIFICATION_TYPE":"U","NORAD_CAT_ID":68001,"ELEMENT_SET_NO":999,"REV_AT_EPOCH":371,"BSTAR":-0.013495561,"MEAN_MOTION_DOT":-0.01922992,"MEAN_MOTION_DDOT":0},{"OBJECT_NAME":"STARLINK-36898","OBJECT_ID":"2026-039S","EPOCH":"2026-03-14T08:10:53.376384","MEAN_MOTION":15.82125495,"ECCENTRICITY":0.00012496,"INCLINATION":42.9988,"RA_OF_ASC_NODE":26.2478,"ARG_OF_PERICENTER":229.9232,"MEAN_ANOMALY":130.1531,"EPHEMERIS_TYPE":0,"CLASSIFICATION_TYPE":"U","NORAD_CAT_ID":68002,"ELEMENT_SET_NO":999,"REV_AT_EPOCH":237,"BSTAR":0.0015837523,"MEAN_MOTION_DOT":0.0034851,"MEAN_MOTION_DDOT":0},{"OBJECT_NAME":"STARLINK-36862","OBJECT_ID":"2026-039T","EPOCH":"2026-03-14T22:00:01.999584","MEAN_MOTION":15.77452936,"ECCENTRICITY":0.00015493,"INCLINATION":42.9996,"RA_OF_ASC_NODE":22.721,"ARG_OF_PERICENTER":260.0744,"MEAN_ANOMALY":142.7965,"EPHEMERIS_TYPE":0,"CLASSIFICATION_TYPE":"U","NORAD_CAT_ID":68003,"ELEMENT_SET_NO":999,"REV_AT_EPOCH":371,"BSTAR":-0.012974393,"MEAN_MOTION_DOT":-0.01926961,"MEAN_MOTION_DDOT":0}]
